UNKNOWN                 
1 81254U          26130.95354165  .00002900  00000+0  18703-2 0  9991
2 81254 100.3777 218.5666 0071620  39.4514 321.1831 14.02698735633807
UNKNOWN                 
1 81279U          26140.08740018  .00000561  00000+0  22875-3 0  9996
2 81279  98.1048 191.6541 0204920 280.7724  77.0447 14.20338266485071
UNKNOWN                 
1 81301U          26139.62592957  .00000137  00000+0  20941-3 0  9998
2 81301  66.7583 278.7411 0083198 126.5334 248.8215 13.76807923628094
UNKNOWN                 
1 81311U          26140.14535296  .00000252  00000+0  61926-4 0  9998
2 81311  98.7074 209.6987 0130817   0.8287  28.9911 14.56782336662657
UNKNOWN                 
1 81323U          26142.16119365  .00009430  00000+0  11569-2 0  9993
2 81323  65.7508 297.8727 0329391 229.5496 127.6458 14.51830256136318
UNKNOWN                 
1 81343U          26142.33930655  .00004374  00000+0  29760-3 0  9992
2 81343  85.8734 113.3674 0009150  48.5837 311.6183 15.06027601478472
UNKNOWN                 
1 81359U          26141.09583656  .00000407  00000+0  44691-3 0  9999
2 81359  66.7991  30.4874 0117343 220.0174 139.2210 13.79092771627455
UNKNOWN                 
1 81386U          26142.34043071  .00003145  00000+0  10097-2 0  9994
2 81386  71.0477   7.5657 0088419 190.2004 169.7341 14.37966874647317
