CCSDS_OMM_VERS = 2.0
CREATION_DATE  = 
ORIGINATOR     = 

OBJECT_NAME    = UNKNOWN
OBJECT_ID      = 
CENTER_NAME    = EARTH
REF_FRAME      = TEME
TIME_SYSTEM    = UTC
MEAN_ELEMENT_THEORY = SGP/SGP4

EPOCH          = 2026-05-10T22:53:05.998560
MEAN_MOTION    = 14.02698735
ECCENTRICITY   = .007162
INCLINATION    = 100.3777
RA_OF_ASC_NODE = 218.5666
ARG_OF_PERICENTER = 39.4514
MEAN_ANOMALY   = 321.1831

EPHEMERIS_TYPE = 0
CLASSIFICATION_TYPE = U
NORAD_CAT_ID   = 81254
ELEMENT_SET_NO = 999
REV_AT_EPOCH   = 63380
BSTAR          = .18703E-2
MEAN_MOTION_DOT = .29E-4
MEAN_MOTION_DDOT = 0

CCSDS_OMM_VERS = 2.0
CREATION_DATE  = 
ORIGINATOR     = 

OBJECT_NAME    = UNKNOWN
OBJECT_ID      = 
CENTER_NAME    = EARTH
REF_FRAME      = TEME
TIME_SYSTEM    = UTC
MEAN_ELEMENT_THEORY = SGP/SGP4

EPOCH          = 2026-05-20T02:05:51.375552
MEAN_MOTION    = 14.20338266
ECCENTRICITY   = .020492
INCLINATION    = 98.1048
RA_OF_ASC_NODE = 191.6541
ARG_OF_PERICENTER = 280.7724
MEAN_ANOMALY   = 77.0447

EPHEMERIS_TYPE = 0
CLASSIFICATION_TYPE = U
NORAD_CAT_ID   = 81279
ELEMENT_SET_NO = 999
REV_AT_EPOCH   = 48507
BSTAR          = .22875E-3
MEAN_MOTION_DOT = .561E-5
MEAN_MOTION_DDOT = 0

CCSDS_OMM_VERS = 2.0
CREATION_DATE  = 
ORIGINATOR     = 

OBJECT_NAME    = UNKNOWN
OBJECT_ID      = 
CENTER_NAME    = EARTH
REF_FRAME      = TEME
TIME_SYSTEM    = UTC
MEAN_ELEMENT_THEORY = SGP/SGP4

EPOCH          = 2026-05-19T15:01:20.314848
MEAN_MOTION    = 13.76807923
ECCENTRICITY   = .0083198
INCLINATION    = 66.7583
RA_OF_ASC_NODE = 278.7411
ARG_OF_PERICENTER = 126.5334
MEAN_ANOMALY   = 248.8215

EPHEMERIS_TYPE = 0
CLASSIFICATION_TYPE = U
NORAD_CAT_ID   = 81301
ELEMENT_SET_NO = 999
REV_AT_EPOCH   = 62809
BSTAR          = .20941E-3
MEAN_MOTION_DOT = .137E-5
MEAN_MOTION_DDOT = 0

CCSDS_OMM_VERS = 2.0
CREATION_DATE  = 
ORIGINATOR     = 

OBJECT_NAME    = UNKNOWN
OBJECT_ID      = 
CENTER_NAME    = EARTH
REF_FRAME      = TEME
TIME_SYSTEM    = UTC
MEAN_ELEMENT_THEORY = SGP/SGP4

EPOCH          = 2026-05-20T03:29:18.495744
MEAN_MOTION    = 14.56782336
ECCENTRICITY   = .0130817
INCLINATION    = 98.7074
RA_OF_ASC_NODE = 209.6987
ARG_OF_PERICENTER = 0.8287
MEAN_ANOMALY   = 28.9911

EPHEMERIS_TYPE = 0
CLASSIFICATION_TYPE = U
NORAD_CAT_ID   = 81311
ELEMENT_SET_NO = 999
REV_AT_EPOCH   = 66265
BSTAR          = .61926E-4
MEAN_MOTION_DOT = .252E-5
MEAN_MOTION_DDOT = 0

CCSDS_OMM_VERS = 2.0
CREATION_DATE  = 
ORIGINATOR     = 

OBJECT_NAME    = UNKNOWN
OBJECT_ID      = 
CENTER_NAME    = EARTH
REF_FRAME      = TEME
TIME_SYSTEM    = UTC
MEAN_ELEMENT_THEORY = SGP/SGP4

EPOCH          = 2026-05-22T03:52:07.131360
MEAN_MOTION    = 14.51830256
ECCENTRICITY   = .0329391
INCLINATION    = 65.7508
RA_OF_ASC_NODE = 297.8727
ARG_OF_PERICENTER = 229.5496
MEAN_ANOMALY   = 127.6458

EPHEMERIS_TYPE = 0
CLASSIFICATION_TYPE = U
NORAD_CAT_ID   = 81323
ELEMENT_SET_NO = 999
REV_AT_EPOCH   = 13631
BSTAR          = .11569E-2
MEAN_MOTION_DOT = .943E-4
MEAN_MOTION_DDOT = 0

CCSDS_OMM_VERS = 2.0
CREATION_DATE  = 
ORIGINATOR     = 

OBJECT_NAME    = UNKNOWN
OBJECT_ID      = 
CENTER_NAME    = EARTH
REF_FRAME      = TEME
TIME_SYSTEM    = UTC
MEAN_ELEMENT_THEORY = SGP/SGP4

EPOCH          = 2026-05-22T08:08:36.085920
MEAN_MOTION    = 15.06027601
ECCENTRICITY   = .000915
INCLINATION    = 85.8734
RA_OF_ASC_NODE = 113.3674
ARG_OF_PERICENTER = 48.5837
MEAN_ANOMALY   = 311.6183

EPHEMERIS_TYPE = 0
CLASSIFICATION_TYPE = U
NORAD_CAT_ID   = 81343
ELEMENT_SET_NO = 999
REV_AT_EPOCH   = 47847
BSTAR          = .2976E-3
MEAN_MOTION_DOT = .4374E-4
MEAN_MOTION_DDOT = 0

CCSDS_OMM_VERS = 2.0
CREATION_DATE  = 
ORIGINATOR     = 

OBJECT_NAME    = UNKNOWN
OBJECT_ID      = 
CENTER_NAME    = EARTH
REF_FRAME      = TEME
TIME_SYSTEM    = UTC
MEAN_ELEMENT_THEORY = SGP/SGP4

EPOCH          = 2026-05-21T02:18:00.278784
MEAN_MOTION    = 13.79092771
ECCENTRICITY   = .0117343
INCLINATION    = 66.7991
RA_OF_ASC_NODE = 30.4874
ARG_OF_PERICENTER = 220.0174
MEAN_ANOMALY   = 139.2210

EPHEMERIS_TYPE = 0
CLASSIFICATION_TYPE = U
NORAD_CAT_ID   = 81359
ELEMENT_SET_NO = 999
REV_AT_EPOCH   = 62745
BSTAR          = .44691E-3
MEAN_MOTION_DOT = .407E-5
MEAN_MOTION_DDOT = 0

CCSDS_OMM_VERS = 2.0
CREATION_DATE  = 
ORIGINATOR     = 

OBJECT_NAME    = UNKNOWN
OBJECT_ID      = 
CENTER_NAME    = EARTH
REF_FRAME      = TEME
TIME_SYSTEM    = UTC
MEAN_ELEMENT_THEORY = SGP/SGP4

EPOCH          = 2026-05-22T08:10:13.213344
MEAN_MOTION    = 14.37966874
ECCENTRICITY   = .0088419
INCLINATION    = 71.0477
RA_OF_ASC_NODE = 7.5657
ARG_OF_PERICENTER = 190.2004
MEAN_ANOMALY   = 169.7341

EPHEMERIS_TYPE = 0
CLASSIFICATION_TYPE = U
NORAD_CAT_ID   = 81386
ELEMENT_SET_NO = 999
REV_AT_EPOCH   = 64731
BSTAR          = .10097E-2
MEAN_MOTION_DOT = .3145E-4
MEAN_MOTION_DDOT = 0

